[
  {
    "OBJECT_NAME": "STARLINK-2288",
    "OBJECT_ID": "2021-024BK",
    "EPOCH": "2025-04-16T01:09:24.530112",
    "MEAN_MOTION": 16.02756053,
    "ECCENTRICITY": 0.0003717,
    "INCLINATION": 53.0469,
    "RA_OF_ASC_NODE": 342.5576,
    "ARG_OF_PERICENTER": 250.5206,
    "MEAN_ANOMALY": 216.9744,
    "EPHEMERIS_TYPE": 0,
    "CLASSIFICATION_TYPE": "U",
    "NORAD_CAT_ID": 48034,
    "ELEMENT_SET_NO": 999,
    "REV_AT_EPOCH": 22499,
    "BSTAR": 0.0017001,
    "MEAN_MOTION_DOT": 0.01039022,
    "MEAN_MOTION_DDOT": 0.0005691
  },
  {
    "OBJECT_NAME": "STARLINK-2404",
    "OBJECT_ID": "2021-027B",
    "EPOCH": "2025-04-16T12:38:29.001120",
    "MEAN_MOTION": 15.06416995,
    "ECCENTRICITY": 0.0001389,
    "INCLINATION": 53.0534,
    "RA_OF_ASC_NODE": 190.5101,
    "ARG_OF_PERICENTER": 108.9048,
    "MEAN_ANOMALY": 251.2091,
    "EPHEMERIS_TYPE": 0,
    "CLASSIFICATION_TYPE": "U",
    "NORAD_CAT_ID": 48093,
    "ELEMENT_SET_NO": 999,
    "REV_AT_EPOCH": 22324,
    "BSTAR": 0.00062621,
    "MEAN_MOTION_DOT": 9.062e-5,
    "MEAN_MOTION_DDOT": 0
  },
  {
    "OBJECT_NAME": "STARLINK-2412",
    "OBJECT_ID": "2021-027C",
    "EPOCH": "2025-04-16T16:14:45.119040",
    "MEAN_MOTION": 15.06398646,
    "ECCENTRICITY": 0.0001408,
    "INCLINATION": 53.0546,
    "RA_OF_ASC_NODE": 199.6318,
    "ARG_OF_PERICENTER": 94.4904,
    "MEAN_ANOMALY": 265.6246,
    "EPHEMERIS_TYPE": 0,
    "CLASSIFICATION_TYPE": "U",
    "NORAD_CAT_ID": 48094,
    "ELEMENT_SET_NO": 999,
    "REV_AT_EPOCH": 22313,
    "BSTAR": 0.00030497,
    "MEAN_MOTION_DOT": 4.264e-5,
    "MEAN_MOTION_DDOT": 0
  },
  {
    "OBJECT_NAME": "STARLINK-2414",
    "OBJECT_ID": "2021-027D",
    "EPOCH": "2025-04-16T13:14:16.973376",
    "MEAN_MOTION": 15.0639053,
    "ECCENTRICITY": 0.0001278,
    "INCLINATION": 53.0548,
    "RA_OF_ASC_NODE": 200.1993,
    "ARG_OF_PERICENTER": 89.8421,
    "MEAN_ANOMALY": 270.2714,
    "EPHEMERIS_TYPE": 0,
    "CLASSIFICATION_TYPE": "U",
    "NORAD_CAT_ID": 48095,
    "ELEMENT_SET_NO": 999,
    "REV_AT_EPOCH": 22271,
    "BSTAR": 0.0012419,
    "MEAN_MOTION_DOT": 0.0001826,
    "MEAN_MOTION_DDOT": 0
  },
  {
    "OBJECT_NAME": "STARLINK-2417",
    "OBJECT_ID": "2021-027E",
    "EPOCH": "2025-04-16T17:23:44.578464",
    "MEAN_MOTION": 15.06403692,
    "ECCENTRICITY": 0.0001413,
    "INCLINATION": 53.0532,
    "RA_OF_ASC_NODE": 199.4205,
    "ARG_OF_PERICENTER": 103.7411,
    "MEAN_ANOMALY": 256.3735,
    "EPHEMERIS_TYPE": 0,
    "CLASSIFICATION_TYPE": "U",
    "NORAD_CAT_ID": 48096,
    "ELEMENT_SET_NO": 999,
    "REV_AT_EPOCH": 22313,
    "BSTAR": 0.00041066,
    "MEAN_MOTION_DOT": 5.841e-5,
    "MEAN_MOTION_DDOT": 0
  },
  {
    "OBJECT_NAME": "STARLINK-2418",
    "OBJECT_ID": "2021-027F",
    "EPOCH": "2025-04-16T13:43:29.409024",
    "MEAN_MOTION": 15.06393879,
    "ECCENTRICITY": 0.0001377,
    "INCLINATION": 53.0525,
    "RA_OF_ASC_NODE": 180.1069,
    "ARG_OF_PERICENTER": 68.72,
    "MEAN_ANOMALY": 291.3936,
    "EPHEMERIS_TYPE": 0,
    "CLASSIFICATION_TYPE": "U",
    "NORAD_CAT_ID": 48097,
    "ELEMENT_SET_NO": 999,
    "REV_AT_EPOCH": 22339,
    "BSTAR": 0.00037868,
    "MEAN_MOTION_DOT": 5.362e-5,
    "MEAN_MOTION_DDOT": 0
  },
  {
    "OBJECT_NAME": "STARLINK-2421",
    "OBJECT_ID": "2021-027G",
    "EPOCH": "2025-04-16T13:10:17.717088",
    "MEAN_MOTION": 15.06420503,
    "ECCENTRICITY": 0.0001524,
    "INCLINATION": 53.0525,
    "RA_OF_ASC_NODE": 190.2105,
    "ARG_OF_PERICENTER": 76.2357,
    "MEAN_ANOMALY": 283.8801,
    "EPHEMERIS_TYPE": 0,
    "CLASSIFICATION_TYPE": "U",
    "NORAD_CAT_ID": 48098,
    "ELEMENT_SET_NO": 999,
    "REV_AT_EPOCH": 22324,
    "BSTAR": 0.00060247,
    "MEAN_MOTION_DOT": 8.709e-5,
    "MEAN_MOTION_DDOT": 0
  },
  {
    "OBJECT_NAME": "STARLINK-2428",
    "OBJECT_ID": "2021-027H",
    "EPOCH": "2025-04-16T16:04:08.608512",
    "MEAN_MOTION": 15.06393991,
    "ECCENTRICITY": 0.0001344,
    "INCLINATION": 53.0536,
    "RA_OF_ASC_NODE": 199.6702,
    "ARG_OF_PERICENTER": 97.0096,
    "MEAN_ANOMALY": 263.1046,
    "EPHEMERIS_TYPE": 0,
    "CLASSIFICATION_TYPE": "U",
    "NORAD_CAT_ID": 48099,
    "ELEMENT_SET_NO": 999,
    "REV_AT_EPOCH": 22312,
    "BSTAR": 0.00061958,
    "MEAN_MOTION_DOT": 8.958e-5,
    "MEAN_MOTION_DDOT": 0
  },
  {
    "OBJECT_NAME": "STARLINK-2430",
    "OBJECT_ID": "2021-027J",
    "EPOCH": "2025-04-16T15:08:23.388000",
    "MEAN_MOTION": 15.06420492,
    "ECCENTRICITY": 0.0001354,
    "INCLINATION": 53.0536,
    "RA_OF_ASC_NODE": 179.8406,
    "ARG_OF_PERICENTER": 100.4439,
    "MEAN_ANOMALY": 259.6702,
    "EPHEMERIS_TYPE": 0,
    "CLASSIFICATION_TYPE": "U",
    "NORAD_CAT_ID": 48100,
    "ELEMENT_SET_NO": 999,
    "REV_AT_EPOCH": 22340,
    "BSTAR": 0.00032129,
    "MEAN_MOTION_DOT": 4.51e-5,
    "MEAN_MOTION_DDOT": 0
  },
  {
    "OBJECT_NAME": "STARLINK-2436",
    "OBJECT_ID": "2021-027K",
    "EPOCH": "2025-04-16T15:12:25.133472",
    "MEAN_MOTION": 15.06402917,
    "ECCENTRICITY": 0.0001519,
    "INCLINATION": 53.0514,
    "RA_OF_ASC_NODE": 190.0254,
    "ARG_OF_PERICENTER": 131.666,
    "MEAN_ANOMALY": 228.4459,
    "EPHEMERIS_TYPE": 0,
    "CLASSIFICATION_TYPE": "U",
    "NORAD_CAT_ID": 48101,
    "ELEMENT_SET_NO": 999,
    "REV_AT_EPOCH": 22326,
    "BSTAR": 0.00054779,
    "MEAN_MOTION_DOT": 7.888e-5,
    "MEAN_MOTION_DDOT": 0
  },
  {
    "OBJECT_NAME": "STARLINK-2437",
    "OBJECT_ID": "2021-027L",
    "EPOCH": "2025-04-16T14:10:01.831872",
    "MEAN_MOTION": 15.06418951,
    "ECCENTRICITY": 0.0001356,
    "INCLINATION": 53.053,
    "RA_OF_ASC_NODE": 180.0213,
    "ARG_OF_PERICENTER": 63.6988,
    "MEAN_ANOMALY": 296.4141,
    "EPHEMERIS_TYPE": 0,
    "CLASSIFICATION_TYPE": "U",
    "NORAD_CAT_ID": 48102,
    "ELEMENT_SET_NO": 999,
    "REV_AT_EPOCH": 22299,
    "BSTAR": 0.0010508,
    "MEAN_MOTION_DOT": 0.00015413,
    "MEAN_MOTION_DDOT": 0
  },
  {
    "OBJECT_NAME": "STARLINK-2439",
    "OBJECT_ID": "2021-027N",
    "EPOCH": "2025-04-16T14:38:31.937568",
    "MEAN_MOTION": 15.0639727,
    "ECCENTRICITY": 0.000144,
    "INCLINATION": 53.0543,
    "RA_OF_ASC_NODE": 184.9287,
    "ARG_OF_PERICENTER": 74.8139,
    "MEAN_ANOMALY": 285.3009,
    "EPHEMERIS_TYPE": 0,
    "CLASSIFICATION_TYPE": "U",
    "NORAD_CAT_ID": 48104,
    "ELEMENT_SET_NO": 999,
    "REV_AT_EPOCH": 22333,
    "BSTAR": -6.0602e-5,
    "MEAN_MOTION_DOT": -1.184e-5,
    "MEAN_MOTION_DDOT": 0
  },
  {
    "OBJECT_NAME": "STARLINK-2440",
    "OBJECT_ID": "2021-027P",
    "EPOCH": "2025-04-16T18:47:20.949504",
    "MEAN_MOTION": 15.06400692,
    "ECCENTRICITY": 0.0001353,
    "INCLINATION": 53.0546,
    "RA_OF_ASC_NODE": 129.1612,
    "ARG_OF_PERICENTER": 83.2348,
    "MEAN_ANOMALY": 276.8795,
    "EPHEMERIS_TYPE": 0,
    "CLASSIFICATION_TYPE": "U",
    "NORAD_CAT_ID": 48105,
    "ELEMENT_SET_NO": 999,
    "REV_AT_EPOCH": 22412,
    "BSTAR": 0.0002821,
    "MEAN_MOTION_DOT": 3.923e-5,
    "MEAN_MOTION_DDOT": 0
  },
  {
    "OBJECT_NAME": "STARLINK-2442",
    "OBJECT_ID": "2021-027Q",
    "EPOCH": "2025-04-16T12:02:38.114592",
    "MEAN_MOTION": 15.06403942,
    "ECCENTRICITY": 0.0001556,
    "INCLINATION": 53.0537,
    "RA_OF_ASC_NODE": 180.4307,
    "ARG_OF_PERICENTER": 113.5255,
    "MEAN_ANOMALY": 246.5898,
    "EPHEMERIS_TYPE": 0,
    "CLASSIFICATION_TYPE": "U",
    "NORAD_CAT_ID": 48106,
    "ELEMENT_SET_NO": 999,
    "REV_AT_EPOCH": 22338,
    "BSTAR": 0.00075617,
    "MEAN_MOTION_DOT": 0.00011001,
    "MEAN_MOTION_DDOT": 0
  },
  {
    "OBJECT_NAME": "STARLINK-2443",
    "OBJECT_ID": "2021-027R",
    "EPOCH": "2025-04-16T13:59:24.618912",
    "MEAN_MOTION": 15.06404443,
    "ECCENTRICITY": 0.0001915,
    "INCLINATION": 53.0541,
    "RA_OF_ASC_NODE": 180.0512,
    "ARG_OF_PERICENTER": 64.6702,
    "MEAN_ANOMALY": 295.4485,
    "EPHEMERIS_TYPE": 0,
    "CLASSIFICATION_TYPE": "U",
    "NORAD_CAT_ID": 48107,
    "ELEMENT_SET_NO": 999,
    "REV_AT_EPOCH": 22339,
    "BSTAR": 0.00040518,
    "MEAN_MOTION_DOT": 5.759e-5,
    "MEAN_MOTION_DDOT": 0
  },
  {
    "OBJECT_NAME": "STARLINK-2448",
    "OBJECT_ID": "2021-027V",
    "EPOCH": "2025-04-16T17:40:59.668608",
    "MEAN_MOTION": 15.06420998,
    "ECCENTRICITY": 0.0001398,
    "INCLINATION": 53.0527,
    "RA_OF_ASC_NODE": 189.3374,
    "ARG_OF_PERICENTER": 112.3455,
    "MEAN_ANOMALY": 247.7683,
    "EPHEMERIS_TYPE": 0,
    "CLASSIFICATION_TYPE": "U",
    "NORAD_CAT_ID": 48111,
    "ELEMENT_SET_NO": 999,
    "REV_AT_EPOCH": 22328,
    "BSTAR": 0.00073839,
    "MEAN_MOTION_DOT": 0.0001074,
    "MEAN_MOTION_DDOT": 0
  },
  {
    "OBJECT_NAME": "STARLINK-2449",
    "OBJECT_ID": "2021-027W",
    "EPOCH": "2025-04-16T19:06:35.985312",
    "MEAN_MOTION": 15.06441343,
    "ECCENTRICITY": 0.0002172,
    "INCLINATION": 53.0547,
    "RA_OF_ASC_NODE": 204.2626,
    "ARG_OF_PERICENTER": 42.817,
    "MEAN_ANOMALY": 317.2988,
    "EPHEMERIS_TYPE": 0,
    "CLASSIFICATION_TYPE": "U",
    "NORAD_CAT_ID": 48112,
    "ELEMENT_SET_NO": 999,
    "REV_AT_EPOCH": 22307,
    "BSTAR": 0.0024485,
    "MEAN_MOTION_DOT": 0.00036419,
    "MEAN_MOTION_DDOT": 0
  },
  {
    "OBJECT_NAME": "STARLINK-2450",
    "OBJECT_ID": "2021-027X",
    "EPOCH": "2025-04-16T17:34:21.797472",
    "MEAN_MOTION": 15.06401594,
    "ECCENTRICITY": 0.0001306,
    "INCLINATION": 53.0526,
    "RA_OF_ASC_NODE": 199.3901,
    "ARG_OF_PERICENTER": 95.601,
    "MEAN_ANOMALY": 264.5128,
    "EPHEMERIS_TYPE": 0,
    "CLASSIFICATION_TYPE": "U",
    "NORAD_CAT_ID": 48113,
    "ELEMENT_SET_NO": 999,
    "REV_AT_EPOCH": 22312,
    "BSTAR": 0.00042095,
    "MEAN_MOTION_DOT": 5.994e-5,
    "MEAN_MOTION_DDOT": 0
  }
]
